GLOBALSTAR M057         
1 25943U 99058A   24245.79577520 -.00000012  00000+0  73319-3 0  9992
2 25943  51.9973  86.6365 0002854 124.6942 235.4177 12.24793673131660
GLOBALSTAR M059         
1 25944U 99058B   24245.49026003 -.00000050  00000+0  44866-3 0  9992
2 25944  51.9997 268.1855 0000405 104.8770  62.0982 11.99964826539387
GLOBALSTAR M056         
1 25945U 99058C   24245.55590552 -.00000068  00000+0  22490-3 0  9993
2 25945  51.9949 277.3781 0000595 318.0679 176.0753 12.04776927127837
GLOBALSTAR M031         
1 25946U 99058D   24245.59620912  .00000011  00000+0  10272-2 0  9993
2 25946  51.9948 186.8697 0001538 331.0802 200.1587 12.16014961129436
GLOBALSTAR M039         
1 25961U 99062A   24245.86730696 -.00000047  00000+0  31507-3 0  9991
2 25961  51.9850  66.8653 0003586  72.9427 287.1832 12.62301669143836
GLOBALSTAR M034         
1 25962U 99062B   24245.82504875 -.00000047  00000+0  54312-3 0  9995
2 25962  51.9887  40.9521 0013493 214.0143 293.3539 11.79431814104356
GLOBALSTAR M029         
1 25963U 99062C   24245.48083672 -.00000071  00000+0  18371-3 0  9997
2 25963  51.9796 156.4929 0002191 282.0610 249.1880 11.99882798134464
GLOBALSTAR M061         
1 25964U 99062D   24245.34442344 -.00000081  00000+0 -10380-4 0  9993
2 25964  51.9760 222.4087 0005865 140.7221   5.0034 11.76764554 87173
